{
    "type": "Feature",
    "properties": {
        "id": "orthophoto_lyon_2023",
        "name": "Lyon Orthophoto 2023 (5 cm)",
        "type": "wms",
        "url": "https://tiles.craig.fr/ortho?FORMAT=image/jpg&VERSION=1.3.0&SERVICE=WMS&REQUEST=GetMap&LAYERS=grand_lyon_2023&STYLES=&CRS={proj}&WIDTH={width}&HEIGHT={height}&BBOX={bbox}",
        "best": true,
        "end_date": "2023-07-27",
        "start_date": "2024-09-07",
        "country_code": "FR",
        "max_zoom": 22,
        "min_zoom": 10,
        "description": "Orthophotographie 2023 de la Métropole de Lyon",
        "attribution": {
            "url": "https://ids.craig.fr/geocat/srv/api/records/5bc90862-05ac-4de4-a38b-c4e7dc60d0df?language=all",
            "text": "CRAIG - Métropole de Lyon - FEDER Auvergne-Rhône-Alpes - 2024",
            "required": true
        },
        "available_projections": [
            "CRS:84",
            "EPSG:2154",
            "EPSG:3857",
            "EPSG:4326",
        ],
        "license_url": "https://www.etalab.gouv.fr/wp-content/uploads/2017/04/ETALAB-Licence-Ouverte-v2.0.pdf",
        "privacy_policy_url": "",
        "category": "photo"
    },
    "geometry": {
      "type": "Polygon",
      "coordinates": [
        [
          [ 4.8620946, 45.6561603 ],
          [ 4.8622157, 45.6597612 ],
          [ 4.8878917, 45.6593336 ],
          [ 4.8871552, 45.6377282 ],
          [ 4.8999881, 45.6375123 ],
          [ 4.9001116, 45.6411132 ],
          [ 4.9257787, 45.6406769 ],
          [ 4.9259666, 45.6460782 ],
          [ 4.9311004, 45.6459902 ],
          [ 4.9309121, 45.640589 ],
          [ 4.9642786, 45.6400116 ],
          [ 4.9645979, 45.6490136 ],
          [ 4.9774331, 45.6487888 ],
          [ 4.978398, 45.6757948 ],
          [ 4.9989441, 45.675432 ],
          [ 4.9994644, 45.6898351 ],
          [ 5.0046022, 45.6897438 ],
          [ 5.0054506, 45.7131489 ],
          [ 5.0003106, 45.7132402 ],
          [ 5.0004409, 45.716841 ],
          [ 4.9927304, 45.7169776 ],
          [ 4.992925, 45.7223788 ],
          [ 4.9877841, 45.7224696 ],
          [ 4.9879136, 45.7260704 ],
          [ 4.9802018, 45.7262062 ],
          [ 4.9803307, 45.729807 ],
          [ 4.9931846, 45.7295804 ],
          [ 4.9935092, 45.7385824 ],
          [ 5.006365, 45.7383544 ],
          [ 5.0066918, 45.7473564 ],
          [ 5.0581224, 45.7464294 ],
          [ 5.0591285, 45.7734348 ],
          [ 5.0668467, 45.7732937 ],
          [ 5.0683971, 45.814702 ],
          [ 5.0323514, 45.8153567 ],
          [ 5.0322189, 45.8117559 ],
          [ 4.9318081, 45.8135187 ],
          [ 4.9327536, 45.8405254 ],
          [ 4.9276016, 45.8406134 ],
          [ 4.9277274, 45.8442143 ],
          [ 4.919999, 45.8443459 ],
          [ 4.9205003, 45.8587495 ],
          [ 4.9153466, 45.858837 ],
          [ 4.915972, 45.8768416 ],
          [ 4.9082389, 45.8769724 ],
          [ 4.9085505, 45.8859747 ],
          [ 4.8905036, 45.8862779 ],
          [ 4.8908123, 45.8952803 ],
          [ 4.8830766, 45.8954094 ],
          [ 4.8833842, 45.9044117 ],
          [ 4.8704891, 45.9046258 ],
          [ 4.8707947, 45.9136282 ],
          [ 4.8578975, 45.9138408 ],
          [ 4.8580189, 45.9174417 ],
          [ 4.8373817, 45.9177788 ],
          [ 4.8372616, 45.9141778 ],
          [ 4.8192051, 45.9144697 ],
          [ 4.8195024, 45.9234722 ],
          [ 4.8066026, 45.923679 ],
          [ 4.8066616, 45.9254795 ],
          [ 4.7963414, 45.9256438 ],
          [ 4.7964001, 45.9274444 ],
          [ 4.79382, 45.9274853 ],
          [ 4.7941132, 45.9364879 ],
          [ 4.788952, 45.9365696 ],
          [ 4.7891275, 45.9419712 ],
          [ 4.7607381, 45.9424165 ],
          [ 4.7605654, 45.9370149 ],
          [ 4.7554042, 45.937095 ],
          [ 4.7552894, 45.933494 ],
          [ 4.747548, 45.9336138 ],
          [ 4.7473767, 45.9282122 ],
          [ 4.7422163, 45.9282917 ],
          [ 4.7419316, 45.919289 ],
          [ 4.7341922, 45.9194079 ],
          [ 4.7340789, 45.9158068 ],
          [ 4.7289196, 45.9158858 ],
          [ 4.7282984, 45.8960797 ],
          [ 4.7540855, 45.8956826 ],
          [ 4.7536845, 45.8830788 ],
          [ 4.740794, 45.8832781 ],
          [ 4.7406803, 45.879677 ],
          [ 4.7277905, 45.8798747 ],
          [ 4.7263812, 45.8348609 ],
          [ 4.6877428, 45.8354449 ],
          [ 4.6857627, 45.7706244 ],
          [ 4.7037729, 45.7703538 ],
          [ 4.7026632, 45.7343427 ],
          [ 4.7155191, 45.7341478 ],
          [ 4.7154074, 45.7305467 ],
          [ 4.7231204, 45.730429 ],
          [ 4.7229521, 45.7250274 ],
          [ 4.7280936, 45.7249487 ],
          [ 4.7279811, 45.7213476 ],
          [ 4.7613983, 45.7208304 ],
          [ 4.7600803, 45.6794183 ],
          [ 4.7729233, 45.6792169 ],
          [ 4.7721161, 45.6540097 ],
          [ 4.7644138, 45.6541307 ],
          [ 4.7640696, 45.6433276 ],
          [ 4.7717704, 45.6432067 ],
          [ 4.7714824, 45.6342041 ],
          [ 4.7971472, 45.6337972 ],
          [ 4.7969136, 45.6265952 ],
          [ 4.7763844, 45.6269212 ],
          [ 4.7760957, 45.6179187 ],
          [ 4.7504381, 45.6183208 ],
          [ 4.7498694, 45.6003157 ],
          [ 4.7370446, 45.6005145 ],
          [ 4.7368753, 45.5951129 ],
          [ 4.7112279, 45.5955061 ],
          [ 4.7111168, 45.591905 ],
          [ 4.6982938, 45.5920994 ],
          [ 4.6979628, 45.5812962 ],
          [ 4.7056551, 45.5811798 ],
          [ 4.7053782, 45.5721771 ],
          [ 4.7105056, 45.5720992 ],
          [ 4.7103945, 45.5684982 ],
          [ 4.756537, 45.5677866 ],
          [ 4.7560809, 45.5533826 ],
          [ 4.7817085, 45.5529792 ],
          [ 4.781882, 45.5583806 ],
          [ 4.7946969, 45.5581767 ],
          [ 4.7948134, 45.5617777 ],
          [ 4.8025028, 45.5616546 ],
          [ 4.8026784, 45.567056 ],
          [ 4.8103685, 45.5669324 ],
          [ 4.810486, 45.5705334 ],
          [ 4.8156131, 45.5704507 ],
          [ 4.8159669, 45.5812535 ],
          [ 4.7903265, 45.5816648 ],
          [ 4.7905591, 45.5888667 ],
          [ 4.7956879, 45.5887849 ],
          [ 4.7959796, 45.5977874 ],
          [ 4.8088035, 45.5975819 ],
          [ 4.8096854, 45.6245891 ],
          [ 4.8610052, 45.623752 ],
          [ 4.8620946, 45.6561603 ]
        ]
      ]
    }
}
